{
  "type": "FeatureCollection",
  "features": [
    {
      "type": "Feature",
      "properties": {
        "norad_id": 31901,
        "name": "FENGYUN 1C DEB",
        "group": "fengyun-1c-debris",
        "lat": -5.435479728633012,
        "lon": 123.01300328963444,
        "alt_km": 825.9268147853436,
        "timestamp": "2025-12-08T08:59:01.050626+00:00",
        "meta_object_name": "FENGYUN 1C DEB",
        "meta_object_id": "1999-025CLC",
        "meta_epoch": "2025-12-07T14:52:04.426752",
        "meta_mean_motion": 13.94139943,
        "meta_eccentricity": 0.01309915,
        "meta_inclination": 98.6001,
        "meta_ra_of_asc_node": 303.1351,
        "meta_arg_of_pericenter": 203.7772,
        "meta_mean_anomaly": 155.7303,
        "meta_ephemeris_type": 0,
        "meta_classification_type": "U",
        "meta_norad_cat_id": 31901,
        "meta_element_set_no": 999,
        "meta_rev_at_epoch": 63336,
        "meta_bstar": 0.00037276671,
        "meta_mean_motion_dot": 4.9e-06,
        "meta_mean_motion_ddot": 0,
        "tle_line1": "1 31901U 99025CLC 25341.61949568  .00000490  00000+0  37277-3 0  9993",
        "tle_line2": "2 31901  98.6001 303.1351 0130991 203.7772 155.7303 13.94139943633368"
      },
      "geometry": {
        "type": "Point",
        "coordinates": [
          123.01300328963444,
          -5.435479728633012
        ]
      }
    },
    {
      "type": "Feature",
      "properties": {
        "norad_id": 31902,
        "name": "FENGYUN 1C DEB",
        "group": "fengyun-1c-debris",
        "lat": 61.45868788655584,
        "lon": 158.36696586464205,
        "alt_km": 714.7193931778756,
        "timestamp": "2025-12-08T08:59:01.050637+00:00",
        "meta_object_name": "FENGYUN 1C DEB",
        "meta_object_id": "1999-025CLD",
        "meta_epoch": "2025-12-05T10:18:33.310080",
        "meta_mean_motion": 14.23266358,
        "meta_eccentricity": 0.01803929,
        "meta_inclination": 98.5064,
        "meta_ra_of_asc_node": 319.5473,
        "meta_arg_of_pericenter": 170.4432,
        "meta_mean_anomaly": 348.5756,
        "meta_ephemeris_type": 0,
        "meta_classification_type": "U",
        "meta_norad_cat_id": 31902,
        "meta_element_set_no": 999,
        "meta_rev_at_epoch": 64687,
        "meta_bstar": 0.00034089779,
        "meta_mean_motion_dot": 8.69e-06,
        "meta_mean_motion_ddot": 0,
        "tle_line1": "1 31902U 99025CLD 25339.42955220  .00000869  00000+0  34090-3 0  9992",
        "tle_line2": "2 31902  98.5064 319.5473 0180392 170.4432 348.5756 14.23266358646874"
      },
      "geometry": {
        "type": "Point",
        "coordinates": [
          158.36696586464205,
          61.45868788655584
        ]
      }
    },
    {
      "type": "Feature",
      "properties": {
        "norad_id": 31903,
        "name": "FENGYUN 1C DEB",
        "group": "fengyun-1c-debris",
        "lat": 72.30347959637889,
        "lon": -178.91899842120216,
        "alt_km": 632.5272480316135,
        "timestamp": "2025-12-08T08:59:01.050647+00:00",
        "meta_object_name": "FENGYUN 1C DEB",
        "meta_object_id": "1999-025CLE",
        "meta_epoch": "2025-12-06T21:59:05.623584",
        "meta_mean_motion": 14.60419696,
        "meta_eccentricity": 0.01303357,
        "meta_inclination": 99.2741,
        "meta_ra_of_asc_node": 328.6456,
        "meta_arg_of_pericenter": 53.4274,
        "meta_mean_anomaly": 307.8835,
        "meta_ephemeris_type": 0,
        "meta_classification_type": "U",
        "meta_norad_cat_id": 31903,
        "meta_element_set_no": 999,
        "meta_rev_at_epoch": 97310,
        "meta_bstar": 0.0011388009,
        "meta_mean_motion_dot": 6.157e-05,
        "meta_mean_motion_ddot": 0,
        "tle_line1": "1 31903U 99025CLE 25340.91603731  .00006157  00000+0  11388-2 0  9996",
        "tle_line2": "2 31903  99.2741 328.6456 0130335  53.4274 307.8835 14.60419696973104"
      },
      "geometry": {
        "type": "Point",
        "coordinates": [
          -178.91899842120216,
          72.30347959637889
        ]
      }
    },
    {
      "type": "Feature",
      "properties": {
        "norad_id": 31905,
        "name": "FENGYUN 1C DEB",
        "group": "fengyun-1c-debris",
        "lat": -80.84397337030589,
        "lon": 48.49335772128962,
        "alt_km": 923.6169124677472,
        "timestamp": "2025-12-08T08:59:01.050657+00:00",
        "meta_object_name": "FENGYUN 1C DEB",
        "meta_object_id": "1999-025CLG",
        "meta_epoch": "2025-12-07T21:41:11.857344",
        "meta_mean_motion": 14.33075772,
        "meta_eccentricity": 0.01968263,
        "meta_inclination": 99.1502,
        "meta_ra_of_asc_node": 317.8736,
        "meta_arg_of_pericenter": 107.9486,
        "meta_mean_anomaly": 254.326,
        "meta_ephemeris_type": 0,
        "meta_classification_type": "U",
        "meta_norad_cat_id": 31905,
        "meta_element_set_no": 999,
        "meta_rev_at_epoch": 96555,
        "meta_bstar": 0.00068588085,
        "meta_mean_motion_dot": 2.28e-05,
        "meta_mean_motion_ddot": 0,
        "tle_line1": "1 31905U 99025CLG 25341.90360946  .00002280  00000+0  68588-3 0  9994",
        "tle_line2": "2 31905  99.1502 317.8736 0196826 107.9486 254.3260 14.33075772965559"
      },
      "geometry": {
        "type": "Point",
        "coordinates": [
          48.49335772128962,
          -80.84397337030589
        ]
      }
    },
    {
      "type": "Feature",
      "properties": {
        "norad_id": 31906,
        "name": "FENGYUN 1C DEB",
        "group": "fengyun-1c-debris",
        "lat": 30.557109613905265,
        "lon": 110.3534126492542,
        "alt_km": 818.3804268677013,
        "timestamp": "2025-12-08T08:59:01.050667+00:00",
        "meta_object_name": "FENGYUN 1C DEB",
        "meta_object_id": "1999-025CLH",
        "meta_epoch": "2025-12-07T07:41:24.163584",
        "meta_mean_motion": 14.24547765,
        "meta_eccentricity": 0.00528003,
        "meta_inclination": 98.6937,
        "meta_ra_of_asc_node": 114.4932,
        "meta_arg_of_pericenter": 139.8437,
        "meta_mean_anomaly": 250.0197,
        "meta_ephemeris_type": 0,
        "meta_classification_type": "U",
        "meta_norad_cat_id": 31906,
        "meta_element_set_no": 999,
        "meta_rev_at_epoch": 95052,
        "meta_bstar": 0.0042449547,
        "meta_mean_motion_dot": 9.962e-05,
        "meta_mean_motion_ddot": 0,
        "tle_line1": "1 31906U 99025CLH 25341.32041856  .00009962  00000+0  42450-2 0  9990",
        "tle_line2": "2 31906  98.6937 114.4932 0052800 139.8437 250.0197 14.24547765950527"
      },
      "geometry": {
        "type": "Point",
        "coordinates": [
          110.3534126492542,
          30.557109613905265
        ]
      }
    },
    {
      "type": "Feature",
      "properties": {
        "norad_id": 31910,
        "name": "FENGYUN 1C DEB",
        "group": "fengyun-1c-debris",
        "lat": -78.47223323369823,
        "lon": 142.66751872611226,
        "alt_km": 743.7517765512303,
        "timestamp": "2025-12-08T08:59:01.050678+00:00",
        "meta_object_name": "FENGYUN 1C DEB",
        "meta_object_id": "1999-025CLM",
        "meta_epoch": "2025-12-07T08:34:07.965696",
        "meta_mean_motion": 14.47592276,
        "meta_eccentricity": 0.02278266,
        "meta_inclination": 97.6665,
        "meta_ra_of_asc_node": 3.0764,
        "meta_arg_of_pericenter": 172.1681,
        "meta_mean_anomaly": 188.3172,
        "meta_ephemeris_type": 0,
        "meta_classification_type": "U",
        "meta_norad_cat_id": 31910,
        "meta_element_set_no": 999,
        "meta_rev_at_epoch": 64291,
        "meta_bstar": 0.0011268922,
        "meta_mean_motion_dot": 5.713e-05,
        "meta_mean_motion_ddot": 0,
        "tle_line1": "1 31910U 99025CLM 25341.35703664  .00005713  00000+0  11269-2 0  9994",
        "tle_line2": "2 31910  97.6665   3.0764 0227826 172.1681 188.3172 14.47592276642917"
      },
      "geometry": {
        "type": "Point",
        "coordinates": [
          142.66751872611226,
          -78.47223323369823
        ]
      }
    },
    {
      "type": "Feature",
      "properties": {
        "norad_id": 31913,
        "name": "FENGYUN 1C DEB",
        "group": "fengyun-1c-debris",
        "lat": -19.868184825788724,
        "lon": 79.95486689588603,
        "alt_km": 1012.4082086173939,
        "timestamp": "2025-12-08T08:59:01.050688+00:00",
        "meta_object_name": "FENGYUN 1C DEB",
        "meta_object_id": "1999-025CLQ",
        "meta_epoch": "2025-12-06T05:56:47.010048",
        "meta_mean_motion": 13.90952354,
        "meta_eccentricity": 0.02086231,
        "meta_inclination": 99.2937,
        "meta_ra_of_asc_node": 261.2184,
        "meta_arg_of_pericenter": 329.4973,
        "meta_mean_anomaly": 29.4184,
        "meta_ephemeris_type": 0,
        "meta_classification_type": "U",
        "meta_norad_cat_id": 31913,
        "meta_element_set_no": 999,
        "meta_rev_at_epoch": 55796,
        "meta_bstar": 0.012549217,
        "meta_mean_motion_dot": 0.00018766,
        "meta_mean_motion_ddot": 0,
        "tle_line1": "1 31913U 99025CLQ 25340.24776632  .00018766  00000+0  12549-1 0  9992",
        "tle_line2": "2 31913  99.2937 261.2184 0208623 329.4973  29.4184 13.90952354557961"
      },
      "geometry": {
        "type": "Point",
        "coordinates": [
          79.95486689588603,
          -19.868184825788724
        ]
      }
    }
  ]
}